#aV2021  9 15  0  0  0.00000000     288 DD+AD WGS84 FIT  NGA
## 2175 259200.00000000   300.00000000 59472 0.0000000000000
+   32     1  2  3  4  5  6  7  8  9 10 11 12 13 14 15 16 17
+         18 19 20 21 22 23 24 25 26 27 28 29 30 31 32  0  0
+          0  0  0  0  0  0  0  0  0  0  0  0  0  0  0  0  0
+          0  0  0  0  0  0  0  0  0  0  0  0  0  0  0  0  0
+          0  0  0  0  0  0  0  0  0  0  0  0  0  0  0  0  0
++         2  2  2  2  2  2  2  2  2  2  2  2  2  2  2  2  2
++         2  2  2  2  2  2  2  2  2  2  2  2  2  2  2  0  0
++         0  0  0  0  0  0  0  0  0  0  0  0  0  0  0  0  0
++         0  0  0  0  0  0  0  0  0  0  0  0  0  0  0  0  0
++         0  0  0  0  0  0  0  0  0  0  0  0  0  0  0  0  0
%c cc cc ccc ccc cccc cccc cccc cccc ccccc ccccc ccccc ccccc
%c cc cc ccc ccc cccc cccc cccc cccc ccccc ccccc ccccc ccccc
%f  0.0000000  0.000000000  0.00000000000  0.000000000000000
%f  0.0000000  0.000000000  0.00000000000  0.000000000000000
%i    0    0    0    0      0      0      0      0         0
%i    0    0    0    0      0      0      0      0         0
/*      NGA, ST. LOUIS,MO.                                  
/*   EPHEMERIS COMPUTED FROM 2 DAYS OF DATA                 
/*   EPOCHA v7 SMOOTHER                                     
/*   G2139 IERS2010 SATIGS SATAPC                           
*  2021  9 15  5  0  0.00000000
P  1   6456.919705 -17942.346712 -18614.250471    567.290698                    
V  1  20670.183961 -10467.192988  17841.938713     -0.110536                    
P  2 -21932.792232  15021.765067   -274.754406   -632.386659                    
V  2   -597.453457  -2840.378663 -31778.925079     -0.021030                    
P  3  -2908.064794 -17386.163692 -20003.765554   -289.853302                    
V  3  22328.778470  11531.204865 -13235.809050     -0.132919                    
P  4    606.171226 -26516.838365     95.089260   -204.299260                    
V  4   2873.040292    -43.747124 -31804.875787      0.000538                    
P  5 -11075.544394  11133.933124  21272.602499    -54.457198                    
V  5 -24122.039168 -12987.313361  -5559.250743     -0.012496                    
P  6 -23128.123793   3986.844955 -12429.004559     74.721798                    
V  6  12801.360356  -9440.366260 -26668.028445      0.073351                    
P  7  -9821.039137 -12278.528862  21803.828797    245.376488                    
V  7  23193.656248 -13465.724534   2423.576007      0.070879                    
P  8   6939.366926 -23004.081615  10952.680344    -36.538212                    
V  8   2899.119178  13953.047235  27743.066900     -0.014634                    
P  9  -8201.296548 -22832.463575  10714.098711   -360.964981                    
V  9   2313.414443 -13792.548133 -27471.124957     -0.005815                    
P 10  23956.864067  11537.771627  -2467.269925   -203.562691                    
V 10   1716.866582   3572.800064  31574.971083     -0.078532                    
P 11 -23998.464554  11293.481184  -1304.618437     17.875567                    
V 11    162.582387  -3275.745353 -31696.023944      0.023981                    
P 12    959.357835  17340.694533 -20383.278291    -97.572343                    
V 12 -21494.971034 -13286.310381 -12337.988867     -0.054399                    
P 13 -12860.361088  17104.233004  15491.491441    185.669703                    
V 13    537.834808 -20061.422038  22533.412229      0.053472                    
P 14 -23457.414214 -12161.509961  -2968.871385      1.133844                    
V 14  -1649.213847  -4472.119173  31303.310119     -0.080996                    
P 15  -4375.243572  23906.208258   9913.489905   -121.012411                    
V 15  -5391.167096 -12731.661691  27606.871857      0.027310                    
P 16  16105.237680  -5640.076491  20228.427494   -390.827244                    
V 16  21016.682994  15462.195097 -11827.573782     -0.063569                    
P 17 -12565.557807 -11914.777970 -19704.646226    504.877039                    
V 17   2389.633237 -25834.997337  13807.016823      0.056465                    
P 18  11104.211252  10765.028688  21590.300794    322.199083                    
V 18 -23710.681767  13749.614818   5246.342804     -0.043039                    
P 19 -14778.201726  -2109.449704 -22242.757205     53.118815                    
V 19   2656.714897 -27395.153194    689.034770      0.049819                    
P 20 -20602.786270   4586.809684  15933.791377    519.132836                    
V 20 -18203.786495  -9655.299039 -20982.566473     -0.001934                    
P 21  13697.995402 -19088.528537 -11148.827965    142.778863                    
V 21  14408.611487  -6287.595570  27360.003831      0.019772                    
P 22   4818.336763 -14963.378094 -21243.253853   -512.923299                    
V 22  25221.074689  10882.860376  -1727.814507      0.093008                    
P 23  18871.158535  16690.930111   8503.168055     57.345360                    
V 23 -10674.946976  -2935.357336  29297.588679     -0.048739                    
P 24  -9638.610461  19877.543885 -14709.789994    234.832630                    
V 24 -16800.519804   8169.910838  22854.013659      0.085291                    
P 25  11908.805516  18760.219291 -15010.222237    208.495178                    
V 25 -17024.878231  -7459.482760 -22974.273451      0.062941                    
P 26  23695.491318   2123.154090  12036.681451    134.337751                    
V 26  12460.563528   9300.373300 -25763.502171      0.042106                    
P 27  12119.253487 -14802.345110  18079.344682   -193.077503                    
V 27   1792.971878  23413.147815  18146.951240     -0.052970                    
P 28 -23135.986820  -8762.571737  -8843.461811    500.896536                    
V 28  -8418.480239  -8992.425973  29336.778583     -0.070840                    
P 29   4194.306794  24690.137387   8699.800358   -411.891695                    
V 29  -2708.019484  10950.923323 -29681.008258     -0.057491                    
P 30 -19696.728244  -3813.231600  17588.975060   -472.987405                    
V 30  18440.352928 -12483.016852  17778.631672     -0.038397                    
P 31  24191.929915  -5009.371384 -10450.044524   -139.833592                    
V 31 -10255.856283   8269.266684 -27500.298956     -0.020180                    
P 32  14661.420966   7740.932226 -20672.977715     -0.627324                    
V 32   -388.511481  26489.902336   9416.458905     -0.034160                    
EOF
